[{"OBJECT_NAME":"STARLINK-1680","OBJECT_ID":"2020-070AC","EPOCH":"2026-03-21T14:00:01.000224","MEAN_MOTION":15.801853,"ECCENTRICITY":0.00068997,"INCLINATION":53.0393,"RA_OF_ASC_NODE":49.9721,"ARG_OF_PERICENTER":63.7976,"MEAN_ANOMALY":143.5038,"EPHEMERIS_TYPE":0,"CLASSIFICATION_TYPE":"U","NORAD_CAT_ID":46558,"ELEMENT_SET_NO":999,"REV_AT_EPOCH":592,"BSTAR":0.00093669026,"MEAN_MOTION_DOT":0.00182525,"MEAN_MOTION_DDOT":0},{"OBJECT_NAME":"STARLINK-1681","OBJECT_ID":"2020-070AD","EPOCH":"2026-03-21T14:00:01.000224","MEAN_MOTION":15.82357676,"ECCENTRICITY":0.00059533,"INCLINATION":53.0478,"RA_OF_ASC_NODE":14.697,"ARG_OF_PERICENTER":65.5334,"MEAN_ANOMALY":329.8655,"EPHEMERIS_TYPE":0,"CLASSIFICATION_TYPE":"U","NORAD_CAT_ID":46559,"ELEMENT_SET_NO":999,"REV_AT_EPOCH":602,"BSTAR":0.0016346583,"MEAN_MOTION_DOT":0.00359943,"MEAN_MOTION_DDOT":0},{"OBJECT_NAME":"STARLINK-1714","OBJECT_ID":"2020-070AG","EPOCH":"2026-03-21T06:12:38.397600","MEAN_MOTION":15.5296236,"ECCENTRICITY":4.841e-5,"INCLINATION":53.0457,"RA_OF_ASC_NODE":60.5348,"ARG_OF_PERICENTER":280.3507,"MEAN_ANOMALY":79.7448,"EPHEMERIS_TYPE":0,"CLASSIFICATION_TYPE":"U","NORAD_CAT_ID":46562,"ELEMENT_SET_NO":999,"REV_AT_EPOCH":30215,"BSTAR":0.0013745417,"MEAN_MOTION_DOT":0.00087603,"MEAN_MOTION_DDOT":0},{"OBJECT_NAME":"STARLINK-1730","OBJECT_ID":"2020-070AH","EPOCH":"2026-03-21T05:35:25.392192","MEAN_MOTION":15.45716522,"ECCENTRICITY":0.00032026,"INCLINATION":53.0315,"RA_OF_ASC_NODE":67.4207,"ARG_OF_PERICENTER":38.1587,"MEAN_ANOMALY":321.9645,"EPHEMERIS_TYPE":0,"CLASSIFICATION_TYPE":"U","NORAD_CAT_ID":46563,"ELEMENT_SET_NO":999,"REV_AT_EPOCH":30205,"BSTAR":0.0018498216,"MEAN_MOTION_DOT":0.00091474,"MEAN_MOTION_DDOT":0},{"OBJECT_NAME":"STARLINK-1733","OBJECT_ID":"2020-070AJ","EPOCH":"2026-03-21T04:18:14.384160","MEAN_MOTION":15.77185073,"ECCENTRICITY":0.00020708,"INCLINATION":53.0421,"RA_OF_ASC_NODE":50.0921,"ARG_OF_PERICENTER":72.895,"MEAN_ANOMALY":287.2296,"EPHEMERIS_TYPE":0,"CLASSIFICATION_TYPE":"U","NORAD_CAT_ID":46564,"ELEMENT_SET_NO":999,"REV_AT_EPOCH":30227,"BSTAR":0.0022240858,"MEAN_MOTION_DOT":0.00388276,"MEAN_MOTION_DDOT":0},{"OBJECT_NAME":"STARLINK-1735","OBJECT_ID":"2020-070AK","EPOCH":"2026-03-21T04:39:00.443232","MEAN_MOTION":15.64694252,"ECCENTRICITY":0.00036142,"INCLINATION":53.0424,"RA_OF_ASC_NODE":62.5728,"ARG_OF_PERICENTER":202.6172,"MEAN_ANOMALY":157.4684,"EPHEMERIS_TYPE":0,"CLASSIFICATION_TYPE":"U","NORAD_CAT_ID":46565,"ELEMENT_SET_NO":999,"REV_AT_EPOCH":30211,"BSTAR":0.0011651137,"MEAN_MOTION_DOT":0.00116286,"MEAN_MOTION_DDOT":0},{"OBJECT_NAME":"STARLINK-1741","OBJECT_ID":"2020-070AM","EPOCH":"2026-03-21T05:25:12.897408","MEAN_MOTION":15.65790136,"ECCENTRICITY":0.00020497,"INCLINATION":53.0422,"RA_OF_ASC_NODE":61.1866,"ARG_OF_PERICENTER":177.2136,"MEAN_ANOMALY":182.889,"EPHEMERIS_TYPE":0,"CLASSIFICATION_TYPE":"U","NORAD_CAT_ID":46567,"ELEMENT_SET_NO":999,"REV_AT_EPOCH":30214,"BSTAR":0.00109118,"MEAN_MOTION_DOT":0.00113696,"MEAN_MOTION_DDOT":0},{"OBJECT_NAME":"STARLINK-1531","OBJECT_ID":"2020-070AS","EPOCH":"2026-03-21T05:28:39.670752","MEAN_MOTION":15.6579812,"ECCENTRICITY":0.00065027,"INCLINATION":53.053,"RA_OF_ASC_NODE":82.9516,"ARG_OF_PERICENTER":312.1411,"MEAN_ANOMALY":47.9051,"EPHEMERIS_TYPE":0,"CLASSIFICATION_TYPE":"U","NORAD_CAT_ID":46572,"ELEMENT_SET_NO":999,"REV_AT_EPOCH":30183,"BSTAR":0.0011058109,"MEAN_MOTION_DOT":0.00115383,"MEAN_MOTION_DDOT":0},{"OBJECT_NAME":"STARLINK-1677","OBJECT_ID":"2020-070AW","EPOCH":"2026-03-21T13:03:06.381504","MEAN_MOTION":15.68254214,"ECCENTRICITY":0.00027713,"INCLINATION":53.0378,"RA_OF_ASC_NODE":65.9274,"ARG_OF_PERICENTER":98.893,"MEAN_ANOMALY":261.24,"EPHEMERIS_TYPE":0,"CLASSIFICATION_TYPE":"U","NORAD_CAT_ID":46576,"ELEMENT_SET_NO":999,"REV_AT_EPOCH":30210,"BSTAR":0.0011287328,"MEAN_MOTION_DOT":0.00130279,"MEAN_MOTION_DDOT":0},{"OBJECT_NAME":"STARLINK-1683","OBJECT_ID":"2020-070AY","EPOCH":"2026-03-21T14:00:01.000224","MEAN_MOTION":15.85993645,"ECCENTRICITY":0.00046389,"INCLINATION":53.0095,"RA_OF_ASC_NODE":11.4399,"ARG_OF_PERICENTER":82.9138,"MEAN_ANOMALY":267.212,"EPHEMERIS_TYPE":0,"CLASSIFICATION_TYPE":"U","NORAD_CAT_ID":46578,"ELEMENT_SET_NO":999,"REV_AT_EPOCH":604,"BSTAR":0.0015319926,"MEAN_MOTION_DOT":0.00402901,"MEAN_MOTION_DDOT":0},{"OBJECT_NAME":"STARLINK-1728","OBJECT_ID":"2020-070BC","EPOCH":"2026-03-21T04:06:22.306464","MEAN_MOTION":15.55109364,"ECCENTRICITY":0.00018977,"INCLINATION":53.0407,"RA_OF_ASC_NODE":69.9601,"ARG_OF_PERICENTER":184.6984,"MEAN_ANOMALY":175.4009,"EPHEMERIS_TYPE":0,"CLASSIFICATION_TYPE":"U","NORAD_CAT_ID":46582,"ELEMENT_SET_NO":999,"REV_AT_EPOCH":30201,"BSTAR":0.0016244021,"MEAN_MOTION_DOT":0.00112427,"MEAN_MOTION_DDOT":0},{"OBJECT_NAME":"STARLINK-1736","OBJECT_ID":"2020-070BF","EPOCH":"2026-03-21T05:03:52.243776","MEAN_MOTION":15.69027868,"ECCENTRICITY":0.00019089,"INCLINATION":53.0422,"RA_OF_ASC_NODE":59.1821,"ARG_OF_PERICENTER":116.7633,"MEAN_ANOMALY":243.3579,"EPHEMERIS_TYPE":0,"CLASSIFICATION_TYPE":"U","NORAD_CAT_ID":46585,"ELEMENT_SET_NO":999,"REV_AT_EPOCH":30216,"BSTAR":0.0011243443,"MEAN_MOTION_DOT":0.00134022,"MEAN_MOTION_DDOT":0},{"OBJECT_NAME":"STARLINK-1746","OBJECT_ID":"2020-070BJ","EPOCH":"2026-03-21T14:00:01.000224","MEAN_MOTION":15.75877513,"ECCENTRICITY":0.00025361,"INCLINATION":53.0391,"RA_OF_ASC_NODE":55.822,"ARG_OF_PERICENTER":131.5004,"MEAN_ANOMALY":13.6317,"EPHEMERIS_TYPE":0,"CLASSIFICATION_TYPE":"U","NORAD_CAT_ID":46588,"ELEMENT_SET_NO":999,"REV_AT_EPOCH":591,"BSTAR":0.0010508353,"MEAN_MOTION_DOT":0.00168365,"MEAN_MOTION_DDOT":0},{"OBJECT_NAME":"STARLINK-1716","OBJECT_ID":"2020-073C","EPOCH":"2026-03-21T13:13:39.834336","MEAN_MOTION":15.66759262,"ECCENTRICITY":0.00086917,"INCLINATION":53.0431,"RA_OF_ASC_NODE":142.8663,"ARG_OF_PERICENTER":14.7056,"MEAN_ANOMALY":345.4211,"EPHEMERIS_TYPE":0,"CLASSIFICATION_TYPE":"U","NORAD_CAT_ID":46672,"ELEMENT_SET_NO":999,"REV_AT_EPOCH":29956,"BSTAR":0.0010039189,"MEAN_MOTION_DOT":0.00108848,"MEAN_MOTION_DDOT":0},{"OBJECT_NAME":"STARLINK-1718","OBJECT_ID":"2020-073E","EPOCH":"2026-03-21T13:44:22.331616","MEAN_MOTION":15.57968727,"ECCENTRICITY":0.00061357,"INCLINATION":53.0487,"RA_OF_ASC_NODE":170.3688,"ARG_OF_PERICENTER":341.5862,"MEAN_ANOMALY":18.4927,"EPHEMERIS_TYPE":0,"CLASSIFICATION_TYPE":"U","NORAD_CAT_ID":46674,"ELEMENT_SET_NO":999,"REV_AT_EPOCH":29917,"BSTAR":0.0012552265,"MEAN_MOTION_DOT":0.00096391,"MEAN_MOTION_DDOT":0},{"OBJECT_NAME":"STARLINK-1775","OBJECT_ID":"2020-073M","EPOCH":"2026-03-21T14:00:01.000224","MEAN_MOTION":15.817863,"ECCENTRICITY":0.00040117,"INCLINATION":53.0422,"RA_OF_ASC_NODE":150.796,"ARG_OF_PERICENTER":27.825,"MEAN_ANOMALY":337.5854,"EPHEMERIS_TYPE":0,"CLASSIFICATION_TYPE":"U","NORAD_CAT_ID":46681,"ELEMENT_SET_NO":999,"REV_AT_EPOCH":597,"BSTAR":0.0014262107,"MEAN_MOTION_DOT":0.00303573,"MEAN_MOTION_DDOT":0}]
