STARLINK-1680           
1 46558U 20070AC  26080.58334491  .00182525  00000+0  93669-3 0  9998
2 46558  53.0393  49.9721 0006899  63.7976 143.5038 15.80185300  5926
STARLINK-1681           
1 46559U 20070AD  26080.58334491  .00359943  00000+0  16347-2 0  9996
2 46559  53.0478  14.6970 0005953  65.5334 329.8655 15.82357676  6029
STARLINK-1714           
1 46562U 20070AG  26080.25877775  .00087603  00000+0  13745-2 0  9991
2 46562  53.0457  60.5348 0000484 280.3507  79.7448 15.52962360302155
STARLINK-1730           
1 46563U 20070AH  26080.23293278  .00091474  00000+0  18498-2 0  9991
2 46563  53.0315  67.4207 0003202  38.1587 321.9645 15.45716522302056
STARLINK-1733           
1 46564U 20070AJ  26080.17933315  .00388276  00000+0  22241-2 0  9998
2 46564  53.0421  50.0921 0002070  72.8950 287.2296 15.77185073302273
STARLINK-1735           
1 46565U 20070AK  26080.19375513  .00116286  00000+0  11651-2 0  9994
2 46565  53.0424  62.5728 0003614 202.6172 157.4684 15.64694252302116
STARLINK-1741           
1 46567U 20070AM  26080.22584372  .00113696  00000+0  10912-2 0  9996
2 46567  53.0422  61.1866 0002049 177.2136 182.8890 15.65790136302145
STARLINK-1531           
1 46572U 20070AS  26080.22823693  .00115383  00000+0  11058-2 0  9991
2 46572  53.0530  82.9516 0006502 312.1411  47.9051 15.65798120301834
STARLINK-1677           
1 46576U 20070AW  26080.54382386  .00130279  00000+0  11287-2 0  9994
2 46576  53.0378  65.9274 0002771  98.8930 261.2400 15.68254214302102
STARLINK-1683           
1 46578U 20070AY  26080.58334491  .00402901  00000+0  15320-2 0  9990
2 46578  53.0095  11.4399 0004638  82.9138 267.2120 15.85993645  6048
STARLINK-1728           
1 46582U 20070BC  26080.17109151  .00112427  00000+0  16244-2 0  9990
2 46582  53.0407  69.9601 0001897 184.6984 175.4009 15.55109364302013
STARLINK-1736           
1 46585U 20070BF  26080.21102134  .00134022  00000+0  11243-2 0  9991
2 46585  53.0422  59.1821 0001908 116.7633 243.3579 15.69027868302164
STARLINK-1746           
1 46588U 20070BJ  26080.58334491  .00168365  00000+0  10508-2 0  9997
2 46588  53.0391  55.8220 0002536 131.5004  13.6317 15.75877513  5911
STARLINK-1716           
1 46672U 20073C   26080.55115549  .00108848  00000+0  10039-2 0  9991
2 46672  53.0431 142.8663 0008691  14.7056 345.4211 15.66759262299560
STARLINK-1718           
1 46674U 20073E   26080.57248069  .00096391  00000+0  12552-2 0  9990
2 46674  53.0487 170.3688 0006135 341.5862  18.4927 15.57968727299179
STARLINK-1775           
1 46681U 20073M   26080.58334491  .00303573  00000+0  14262-2 0  9997
2 46681  53.0422 150.7960 0004011  27.8250 337.5854 15.81786300  5976
